[{"OBJECT_NAME":"WILDTRACKCUBE-SIMBA","OBJECT_ID":"2021-022K","EPOCH":"2026-03-06T07:01:53.275872","MEAN_MOTION":16.39544551,"ECCENTRICITY":0.0005874,"INCLINATION":97.3721,"RA_OF_ASC_NODE":347.4784,"ARG_OF_PERICENTER":201.7073,"MEAN_ANOMALY":158.3978,"EPHEMERIS_TYPE":0,"CLASSIFICATION_TYPE":"U","NORAD_CAT_ID":47941,"ELEMENT_SET_NO":999,"REV_AT_EPOCH":27530,"BSTAR":0.00074904122,"MEAN_MOTION_DOT":0.0875915,"MEAN_MOTION_DDOT":2.64013e-6},{"OBJECT_NAME":"GREENCUBE (IO-117)","OBJECT_ID":"2022-080E","EPOCH":"2026-03-07T02:04:59.773152","MEAN_MOTION":6.42583094,"ECCENTRICITY":0.0009014,"INCLINATION":70.1628,"RA_OF_ASC_NODE":333.7587,"ARG_OF_PERICENTER":311.8097,"MEAN_ANOMALY":48.1792,"EPHEMERIS_TYPE":0,"CLASSIFICATION_TYPE":"U","NORAD_CAT_ID":53109,"ELEMENT_SET_NO":999,"REV_AT_EPOCH":8550,"BSTAR":0,"MEAN_MOTION_DOT":-3.0e-8,"MEAN_MOTION_DDOT":0},{"OBJECT_NAME":"SITRO-AIS 5 (KATYS)","OBJECT_ID":"2023-091L","EPOCH":"2026-03-07T04:33:35.110080","MEAN_MOTION":15.26977801,"ECCENTRICITY":0.0013408,"INCLINATION":97.518,"RA_OF_ASC_NODE":129.2446,"ARG_OF_PERICENTER":103.088,"MEAN_ANOMALY":257.1856,"EPHEMERIS_TYPE":0,"CLASSIFICATION_TYPE":"U","NORAD_CAT_ID":57176,"ELEMENT_SET_NO":999,"REV_AT_EPOCH":14876,"BSTAR":0.00058761,"MEAN_MOTION_DOT":0.00015543,"MEAN_MOTION_DDOT":0},{"OBJECT_NAME":"SITRO-AIS 6 (CHIRKIN)","OBJECT_ID":"2023-091AC","EPOCH":"2026-03-07T05:16:07.787712","MEAN_MOTION":15.2435966,"ECCENTRICITY":0.0014215,"INCLINATION":97.5186,"RA_OF_ASC_NODE":128.88,"ARG_OF_PERICENTER":103.4151,"MEAN_ANOMALY":256.8672,"EPHEMERIS_TYPE":0,"CLASSIFICATION_TYPE":"U","NORAD_CAT_ID":57192,"ELEMENT_SET_NO":999,"REV_AT_EPOCH":14874,"BSTAR":0.00033969,"MEAN_MOTION_DOT":8.268e-5,"MEAN_MOTION_DDOT":0},{"OBJECT_NAME":"SITRO-AIS 8 (ANOKHIN)","OBJECT_ID":"2023-091AD","EPOCH":"2026-03-07T04:13:09.892416","MEAN_MOTION":15.29245713,"ECCENTRICITY":0.0012599,"INCLINATION":97.5173,"RA_OF_ASC_NODE":130.4384,"ARG_OF_PERICENTER":100.7249,"MEAN_ANOMALY":259.541,"EPHEMERIS_TYPE":0,"CLASSIFICATION_TYPE":"U","NORAD_CAT_ID":57193,"ELEMENT_SET_NO":999,"REV_AT_EPOCH":14884,"BSTAR":0.00072419,"MEAN_MOTION_DOT":0.00020553,"MEAN_MOTION_DDOT":0},{"OBJECT_NAME":"SITRO-AIS 7 (FARTUSHNIY)","OBJECT_ID":"2023-091AE","EPOCH":"2026-03-07T04:53:16.891872","MEAN_MOTION":15.24113313,"ECCENTRICITY":0.0014052,"INCLINATION":97.5185,"RA_OF_ASC_NODE":128.7363,"ARG_OF_PERICENTER":104.2391,"MEAN_ANOMALY":256.0408,"EPHEMERIS_TYPE":0,"CLASSIFICATION_TYPE":"U","NORAD_CAT_ID":57194,"ELEMENT_SET_NO":999,"REV_AT_EPOCH":14873,"BSTAR":0.00035423,"MEAN_MOTION_DOT":8.562e-5,"MEAN_MOTION_DDOT":0},{"OBJECT_NAME":"SITRO-AIS 10 (BURDAEV)","OBJECT_ID":"2023-091AK","EPOCH":"2026-03-07T05:02:07.069920","MEAN_MOTION":15.34612839,"ECCENTRICITY":0.0008285,"INCLINATION":97.5186,"RA_OF_ASC_NODE":134.5693,"ARG_OF_PERICENTER":82.6173,"MEAN_ANOMALY":277.6011,"EPHEMERIS_TYPE":0,"CLASSIFICATION_TYPE":"U","NORAD_CAT_ID":57199,"ELEMENT_SET_NO":999,"REV_AT_EPOCH":14910,"BSTAR":0.00087872,"MEAN_MOTION_DOT":0.00029499,"MEAN_MOTION_DDOT":0},{"OBJECT_NAME":"SITRO-AIS 9 (SHCHUKIN)","OBJECT_ID":"2023-091AM","EPOCH":"2026-03-07T04:58:41.099232","MEAN_MOTION":15.34239744,"ECCENTRICITY":0.0008506,"INCLINATION":97.5185,"RA_OF_ASC_NODE":134.3677,"ARG_OF_PERICENTER":82.4332,"MEAN_ANOMALY":277.7876,"EPHEMERIS_TYPE":0,"CLASSIFICATION_TYPE":"U","NORAD_CAT_ID":57201,"ELEMENT_SET_NO":999,"REV_AT_EPOCH":14909,"BSTAR":0.0007551,"MEAN_MOTION_DOT":0.00025027,"MEAN_MOTION_DDOT":0},{"OBJECT_NAME":"SITRO-AIS 12 (SMIRENNIY)","OBJECT_ID":"2023-091AQ","EPOCH":"2026-03-07T05:11:13.032384","MEAN_MOTION":15.34483675,"ECCENTRICITY":0.000817,"INCLINATION":97.5196,"RA_OF_ASC_NODE":134.784,"ARG_OF_PERICENTER":77.6324,"MEAN_ANOMALY":282.5833,"EPHEMERIS_TYPE":0,"CLASSIFICATION_TYPE":"U","NORAD_CAT_ID":57204,"ELEMENT_SET_NO":999,"REV_AT_EPOCH":14911,"BSTAR":0.0008018,"MEAN_MOTION_DOT":0.0002679,"MEAN_MOTION_DDOT":0},{"OBJECT_NAME":"SITRO-AIS 11 (SHEFFER)","OBJECT_ID":"2023-091AU","EPOCH":"2026-03-07T04:33:23.903136","MEAN_MOTION":15.348234,"ECCENTRICITY":0.0008057,"INCLINATION":97.5194,"RA_OF_ASC_NODE":134.946,"ARG_OF_PERICENTER":77.8631,"MEAN_ANOMALY":282.3514,"EPHEMERIS_TYPE":0,"CLASSIFICATION_TYPE":"U","NORAD_CAT_ID":57208,"ELEMENT_SET_NO":999,"REV_AT_EPOCH":14912,"BSTAR":0.00071167,"MEAN_MOTION_DOT":0.00024017,"MEAN_MOTION_DDOT":0},{"OBJECT_NAME":"SITRO-AIS 25","OBJECT_ID":"2024-039R","EPOCH":"2026-03-07T05:44:55.632192","MEAN_MOTION":14.9260308,"ECCENTRICITY":0.0145643,"INCLINATION":95.3939,"RA_OF_ASC_NODE":165.0665,"ARG_OF_PERICENTER":324.993,"MEAN_ANOMALY":34.1785,"EPHEMERIS_TYPE":0,"CLASSIFICATION_TYPE":"U","NORAD_CAT_ID":59066,"ELEMENT_SET_NO":999,"REV_AT_EPOCH":10951,"BSTAR":0.00031901,"MEAN_MOTION_DOT":4.001e-5,"MEAN_MOTION_DDOT":0},{"OBJECT_NAME":"SITRO-AIS 26","OBJECT_ID":"2024-039S","EPOCH":"2026-03-07T05:27:46.648800","MEAN_MOTION":14.92417435,"ECCENTRICITY":0.014591,"INCLINATION":95.3942,"RA_OF_ASC_NODE":164.976,"ARG_OF_PERICENTER":325.5157,"MEAN_ANOMALY":33.6665,"EPHEMERIS_TYPE":0,"CLASSIFICATION_TYPE":"U","NORAD_CAT_ID":59067,"ELEMENT_SET_NO":999,"REV_AT_EPOCH":10950,"BSTAR":0.00036735,"MEAN_MOTION_DOT":4.593e-5,"MEAN_MOTION_DDOT":0},{"OBJECT_NAME":"SITRO-AIS 27","OBJECT_ID":"2024-039T","EPOCH":"2026-03-07T05:24:53.853120","MEAN_MOTION":14.92812077,"ECCENTRICITY":0.014496,"INCLINATION":95.3943,"RA_OF_ASC_NODE":165.2008,"ARG_OF_PERICENTER":324.3523,"MEAN_ANOMALY":34.8086,"EPHEMERIS_TYPE":0,"CLASSIFICATION_TYPE":"U","NORAD_CAT_ID":59068,"ELEMENT_SET_NO":999,"REV_AT_EPOCH":10952,"BSTAR":0.00037604,"MEAN_MOTION_DOT":4.741e-5,"MEAN_MOTION_DDOT":0},{"OBJECT_NAME":"SITRO-AIS 28","OBJECT_ID":"2024-039U","EPOCH":"2026-03-07T04:55:48.535104","MEAN_MOTION":14.92843369,"ECCENTRICITY":0.0144928,"INCLINATION":95.3941,"RA_OF_ASC_NODE":165.2285,"ARG_OF_PERICENTER":324.2359,"MEAN_ANOMALY":34.9224,"EPHEMERIS_TYPE":0,"CLASSIFICATION_TYPE":"U","NORAD_CAT_ID":59071,"ELEMENT_SET_NO":999,"REV_AT_EPOCH":10952,"BSTAR":0.00036426,"MEAN_MOTION_DOT":4.595e-5,"MEAN_MOTION_DDOT":0},{"OBJECT_NAME":"GRBBETA","OBJECT_ID":"2024-128C","EPOCH":"2026-03-06T22:02:04.055136","MEAN_MOTION":15.05749938,"ECCENTRICITY":0.0051734,"INCLINATION":61.9901,"RA_OF_ASC_NODE":214.848,"ARG_OF_PERICENTER":113.5289,"MEAN_ANOMALY":247.1251,"EPHEMERIS_TYPE":0,"CLASSIFICATION_TYPE":"U","NORAD_CAT_ID":60237,"ELEMENT_SET_NO":999,"REV_AT_EPOCH":9086,"BSTAR":0.00047509,"MEAN_MOTION_DOT":6.909e-5,"MEAN_MOTION_DDOT":0},{"OBJECT_NAME":"OOV-CUBE (TUBSAT-30)","OBJECT_ID":"2024-128F","EPOCH":"2026-03-06T20:00:50.211072","MEAN_MOTION":15.02225111,"ECCENTRICITY":0.005471,"INCLINATION":61.9944,"RA_OF_ASC_NODE":222.3349,"ARG_OF_PERICENTER":111.7529,"MEAN_ANOMALY":248.9397,"EPHEMERIS_TYPE":0,"CLASSIFICATION_TYPE":"U","NORAD_CAT_ID":60240,"ELEMENT_SET_NO":999,"REV_AT_EPOCH":9073,"BSTAR":0.00038847,"MEAN_MOTION_DOT":5.102e-5,"MEAN_MOTION_DDOT":0}]
