WILDTRACKCUBE-SIMBA     
1 47941U 21022K   26065.29297773  .08759150  26401-5  74904-3 0  9997
2 47941  97.3721 347.4784 0005874 201.7073 158.3978 16.39544551275308
GREENCUBE (IO-117)      
1 53109U 22080E   26066.08680293 -.00000003  00000+0  00000+0 0  9998
2 53109  70.1628 333.7587 0009014 311.8097  48.1792  6.42583094 85503
SITRO-AIS 5 (KATYS)     
1 57176U 23091L   26066.18998970  .00015543  00000+0  58761-3 0  9999
2 57176  97.5180 129.2446 0013408 103.0880 257.1856 15.26977801148768
SITRO-AIS 6 (CHIRKIN)   
1 57192U 23091AC  26066.21953458  .00008268  00000+0  33969-3 0  9992
2 57192  97.5186 128.8800 0014215 103.4151 256.8672 15.24359660148748
SITRO-AIS 8 (ANOKHIN)   
1 57193U 23091AD  26066.17580894  .00020553  00000+0  72419-3 0  9992
2 57193  97.5173 130.4384 0012599 100.7249 259.5410 15.29245713148841
SITRO-AIS 7 (FARTUSHNIY)
1 57194U 23091AE  26066.20366773  .00008562  00000+0  35423-3 0  9995
2 57194  97.5185 128.7363 0014052 104.2391 256.0408 15.24113313148737
SITRO-AIS 10 (BURDAEV)  
1 57199U 23091AK  26066.20980405  .00029499  00000+0  87872-3 0  9991
2 57199  97.5186 134.5693 0008285  82.6173 277.6011 15.34612839149101
SITRO-AIS 9 (SHCHUKIN)  
1 57201U 23091AM  26066.20742013  .00025027  00000+0  75510-3 0  9995
2 57201  97.5185 134.3677 0008506  82.4332 277.7876 15.34239744149093
SITRO-AIS 12 (SMIRENNIY)
1 57204U 23091AQ  26066.21612306  .00026790  00000+0  80180-3 0  9997
2 57204  97.5196 134.7840 0008170  77.6324 282.5833 15.34483675149112
SITRO-AIS 11 (SHEFFER)  
1 57208U 23091AU  26066.18985999  .00024017  00000+0  71167-3 0  9993
2 57208  97.5194 134.9460 0008057  77.8631 282.3514 15.34823400149120
SITRO-AIS 25            
1 59066U 24039R   26066.23953278  .00004001  00000+0  31901-3 0  9994
2 59066  95.3939 165.0665 0145643 324.9930  34.1785 14.92603080109515
SITRO-AIS 26            
1 59067U 24039S   26066.22762325  .00004593  00000+0  36735-3 0  9991
2 59067  95.3942 164.9760 0145910 325.5157  33.6665 14.92417435109506
SITRO-AIS 27            
1 59068U 24039T   26066.22562330  .00004741  00000+0  37604-3 0  9997
2 59068  95.3943 165.2008 0144960 324.3523  34.8086 14.92812077109528
SITRO-AIS 28            
1 59071U 24039U   26066.20542286  .00004595  00000+0  36426-3 0  9995
2 59071  95.3941 165.2285 0144928 324.2359  34.9224 14.92843369109520
GRBBETA                 
1 60237U 24128C   26065.91810249  .00006909  00000+0  47509-3 0  9999
2 60237  61.9901 214.8480 0051734 113.5289 247.1251 15.05749938 90868
OOV-CUBE (TUBSAT-30)    
1 60240U 24128F   26065.83391448  .00005102  00000+0  38847-3 0  9998
2 60240  61.9944 222.3349 0054710 111.7529 248.9397 15.02225111 90736
